NORAD_CAT_ID,OBJECT_NAME,OBJECT_TYPE,EPOCH,MEAN_MOTION,ECCENTRICITY,INCLINATION,RA_OF_ASC_NODE,ARG_OF_PERICENTER,MEAN_ANOMALY,BSTAR,MEAN_MOTION_DOT,MEAN_MOTION_DDOT,TLE_LINE0,TLE_LINE1,TLE_LINE2,SEMIMAJOR_AXIS,PERIOD,APOGEE,PERIGEE,DECAYED
54054.0,STARLINK-5163,PAYLOAD,2022-12-08 08:00:01,15.08894343,0.0001714,53.2161,274.4917,44.7862,245.2707,-0.0052971,-0.00083738,0.0,0 STARLINK-5163,1 54054U 22136D   22342.33334491 -.00083738  00000-0 -52971-2 0  9992,2 54054  53.2161 274.4917 0001714  44.7862 245.2707 15.08894343  8073,6917.714,95.434,540.765,538.394,0.0
54054.0,STARLINK-5163,PAYLOAD,2022-12-08 14:00:01,15.08841375,0.0001585,53.2136,273.3675,43.5666,165.2,-0.001313,-0.00021124,0.0,0 STARLINK-5163,1 54054U 22136D   22342.58334491 -.00021124  00000-0 -13130-2 0  9994,2 54054  53.2136 273.3675 0001585  43.5666 165.2000 15.08841375  1302,6917.876,95.437,540.8380000000002,538.645,0.0
54054.0,STARLINK-5163,PAYLOAD,2022-12-08 22:00:01,15.088531,0.0001646,53.2137,271.8714,47.0777,173.3343,-0.0029956,-0.00047665,0.0,0 STARLINK-5163,1 54054U 22136D   22342.91668981 -.00047665  00000-0 -29956-2 0  9996,2 54054  53.2137 271.8714 0001646  47.0777 173.3343 15.08853100  1309,6917.84,95.437,540.844,538.567,0.0
54054.0,STARLINK-5163,PAYLOAD,2022-12-09 00:00:00,15.08844155,0.0001734,53.2136,271.4978,44.0988,269.1409,-0.0040066,-0.00063499,0.0,0 STARLINK-5163,1 54054U 22136D   22343.00001157 -.00063499  00000-0 -40066-2 0  9991,2 54054  53.2136 271.4978 0001734  44.0988 269.1409 15.08844155  8174,6917.868,95.437,540.932,538.533,0.0
54054.0,STARLINK-5163,PAYLOAD,2022-12-09 14:00:01,15.0878335,0.0001817,53.2139,268.8783,47.4641,196.0287,0.0017875,0.00028231,0.0,0 STARLINK-5163,1 54054U 22136D   22343.58334491  .00028231  00000-0  17875-2 0  9999,2 54054  53.2139 268.8783 0001817  47.4641 196.0287 15.08783350  1305,6918.054,95.441,541.1759999999998,538.6619999999998,0.0
54054.0,STARLINK-5163,PAYLOAD,2022-12-09 16:00:00,15.08762947,0.0001799,53.2138,268.504,50.1324,286.2514,0.0052093,0.00083425,0.0,0 STARLINK-5163,1 54054U 22136D   22343.66667824  .00083425  00000-0  52093-2 0  9994,2 54054  53.2138 268.5040 0001799  50.1324 286.2514 15.08762947  8272,6918.116,95.442,541.225,538.736,0.0
54054.0,STARLINK-5163,PAYLOAD,2022-12-10 08:00:01,15.08867012,0.0001921,53.2142,265.5129,42.5565,317.0168,-0.00063213,-0.00010342,0.0,0 STARLINK-5163,1 54054U 22136D   22344.33335648 -.00010342  00000-0 -63213-3 0  9992,2 54054  53.2142 265.5129 0001921  42.5565 317.0168 15.08867012  8379,6917.7980000000025,95.436,540.992,538.3340000000002,0.0
54054.0,STARLINK-5163,PAYLOAD,2022-12-10 14:00:01,15.08778177,0.0001832,53.2157,264.3892,45.5093,232.7404,0.013092,0.0021411,0.0,0 STARLINK-5163,1 54054U 22136D   22344.58334491  .00214110  00000-0  13092-1 0  9999,2 54054  53.2157 264.3892 0001832  45.5093 232.7404 15.08778177  1304,6918.069,95.441,541.202,538.6669999999998,0.0
54054.0,STARLINK-5163,PAYLOAD,2022-12-11 00:00:00,15.08872061,0.0001856,53.215,262.5201,45.1397,337.5829,-0.0024874,-0.00039693,0.0,0 STARLINK-5163,1 54054U 22136D   22345.00001157 -.00039693  00000-0 -24874-2 0  9991,2 54054  53.2150 262.5201 0001856  45.1397 337.5829 15.08872061  1302,6917.781999999997,95.436,540.931,538.363,0.0
54054.0,STARLINK-5163,PAYLOAD,2022-12-11 14:00:01,15.08808918,0.0001751,53.2144,259.8999,48.505,264.5636,0.0028073,0.00044636,0.0,0 STARLINK-5163,1 54054U 22136D   22345.58334491  .00044636  00000-0  28073-2 0  9990,2 54054  53.2144 259.8999 0001751  48.5050 264.5636 15.08808918  1300,6917.975,95.44,541.052,538.629,0.0
54054.0,STARLINK-5163,PAYLOAD,2022-12-11 16:00:00,15.0880547,0.0001724,53.2145,259.5255,50.25,355.7142,0.0039476,0.00063041,0.0,0 STARLINK-5163,1 54054U 22136D   22345.66667824  .00063041  00000-0  39476-2 0  9998,2 54054  53.2145 259.5255 0001724  50.2500 355.7142 15.08805470  8574,6917.986,95.44,541.044,538.658,0.0
54054.0,STARLINK-5163,PAYLOAD,2022-12-11 22:00:01,15.08865975,0.0001804,53.2144,258.4043,49.1997,275.5253,-0.00041494,-6.891e-05,0.0,0 STARLINK-5163,1 54054U 22136D   22345.91668981 -.00006891  00000-0 -41494-3 0  9997,2 54054  53.2144 258.4043 0001804  49.1997 275.5253 15.08865975  1304,6917.801,95.436,540.914,538.418,0.0
54054.0,STARLINK-5163,PAYLOAD,2022-12-12 14:00:01,15.08813561,0.0001754999999999,53.2133,255.4105,50.8154,297.0853,0.0025547,0.00040575,0.0,0 STARLINK-5163,1 54054U 22136D   22346.58334491  .00040575  00000-0  25547-2 0  9992,2 54054  53.2133 255.4105 0001755  50.8154 297.0853 15.08813561  1306,6917.9609999999975,95.439,541.04,538.612,0.0
54054.0,STARLINK-5163,PAYLOAD,2022-12-12 16:00:01,15.08807072,0.0001749,53.2132,255.0361,52.3902,28.4712,0.0039643,0.00063314,0.0,0 STARLINK-5163,1 54054U 22136D   22346.66668981  .00063314  00000-0  39643-2 0  9993,2 54054  53.2132 255.0361 0001749  52.3902  28.4712 15.08807072  8730,6917.981,95.44,541.056,538.636,0.0
54054.0,STARLINK-5163,PAYLOAD,2022-12-12 20:00:01,15.08844155,0.0001814,53.2134,254.2887,52.4857,214.0869,0.00020077,2.909e-05,0.0,0 STARLINK-5163,1 54054U 22136D   22346.83334491  .00002909  00000-0  20077-3 0  9993,2 54054  53.2134 254.2887 0001814  52.4857 214.0869 15.08844155  1304,6917.868,95.437,540.988,538.4780000000002,0.0
54054.0,STARLINK-5163,PAYLOAD,2022-12-13 04:21:43,15.08847522,0.0001559,53.2154,252.7236,63.3658,296.7494,-8.720700000000001e-05,-1.676e-05,0.0,0 STARLINK-5163,1 54054U 22136D   22347.18175885 -.00001676  00000-0 -87207-4 0  9993,2 54054  53.2154 252.7236 0001559  63.3658 296.7494 15.08847522  8807,6917.857,95.437,540.8009999999998,538.644,0.0
54054.0,STARLINK-5163,PAYLOAD,2022-12-13 17:04:48,15.08924511,0.0001751999999999,53.2155,250.3444,38.9052,321.2066,-0.00099552,-0.00016134,0.0,0 STARLINK-5163,1 54054U 22136D   22347.71167545 -.00016134  00000-0 -99552-3 0  9996,2 54054  53.2155 250.3444 0001752  38.9052 321.2066 15.08924511  8885,6917.621999999999,95.432,540.6990000000002,538.275,0.0
54054.0,STARLINK-5163,PAYLOAD,2022-12-14 04:12:30,15.088521900000002,0.0001968,53.2159,248.2628,48.3644,311.7516,-1.4428e-05,-5.18e-06,0.0,0 STARLINK-5163,1 54054U 22136D   22348.17534993 -.00000518  00000-0 -14428-4 0  9991,2 54054  53.2159 248.2628 0001968  48.3644 311.7516 15.08852190  8955,6917.843000000003,95.437,541.07,538.347,0.0
54054.0,STARLINK-5163,PAYLOAD,2022-12-14 08:58:39,15.08852315,0.0001853,53.2155,247.3709,48.5999,311.5152,3.3877e-05,2.51e-06,0.0,0 STARLINK-5163,1 54054U 22136D   22348.37406650  .00000251  00000-0  33877-4 0  9992,2 54054  53.2155 247.3709 0001853  48.5999 311.5152 15.08852315  8503,6917.843000000003,95.437,540.99,538.4259999999998,0.0
54054.0,STARLINK-5163,PAYLOAD,2022-12-14 20:06:21,15.08840263,0.0001799,53.2161,245.2894,49.8444,310.2706,1.7897e-05,-3e-08,0.0,0 STARLINK-5163,1 54054U 22136D   22348.83775181 -.00000003  00000-0  17897-4 0  9991,2 54054  53.2161 245.2894 0001799  49.8444 310.2706 15.08840263  8577,6917.88,95.438,540.989,538.5,0.0
54054.0,STARLINK-5163,PAYLOAD,2022-12-15 10:24:49,15.0884534,0.000159,53.2167,242.6127,50.2391,309.8741,6.480700000000001e-06,-1.85e-06,0.0,0 STARLINK-5163,1 54054U 22136D   22349.43390752 -.00000185  00000-0  64807-5 0  9990,2 54054  53.2167 242.6127 0001590  50.2391 309.8741 15.08845340  8663,6917.864000000001,95.437,540.8290000000002,538.629,0.0
54054.0,STARLINK-5163,PAYLOAD,2022-12-15 16:46:22,15.0884063,0.0001692,53.2164,241.4237,49.3958,310.7181,1.115e-06,-2.7000000000000004e-06,0.0,0 STARLINK-5163,1 54054U 22136D   22349.69887032 -.00000270  00000-0  11150-5 0  9998,2 54054  53.2164 241.4237 0001692  49.3958 310.7181 15.08840630  8701,6917.878000000002,95.438,540.914,538.573,0.0
54054.0,STARLINK-5163,PAYLOAD,2022-12-15 23:07:54,15.08845569,0.0001710999999999,53.216,240.2337,50.9799,309.1345,-1.4373e-05,-5.17e-06,0.0,0 STARLINK-5163,1 54054U 22136D   22349.96382711 -.00000517  00000-0 -14373-4 0  9996,2 54054  53.2160 240.2337 0001711  50.9799 309.1345 15.08845569  9226,6917.863,95.437,540.9119999999998,538.545,0.0
54054.0,STARLINK-5163,PAYLOAD,2022-12-16 11:51:00,15.08841652,0.0001853,53.2151,237.8557,48.8549,311.2602,-8.724700000000001e-05,-1.677e-05,0.0,0 STARLINK-5163,1 54054U 22136D   22350.49375082 -.00001677  00000-0 -87247-4 0  9997,2 54054  53.2151 237.8557 0001853  48.8549 311.2602 15.08841652  8822,6917.875,95.437,541.0219999999998,538.4580000000002,0.0
54054.0,STARLINK-5163,PAYLOAD,2022-12-16 19:47:56,15.08828747,0.0001899,53.2153,236.3688,49.4416,310.6741,-0.00010557,-1.967e-05,0.0,0 STARLINK-5163,1 54054U 22136D   22350.82496053 -.00001967  00000-0 -10557-3 0  9997,2 54054  53.2153 236.3688 0001899  49.4416 310.6741 15.08828747  9359,6917.915,95.438,541.0930000000002,538.466,0.0
54054.0,STARLINK-5163,PAYLOAD,2022-12-17 10:06:24,15.08828213,0.0001971,53.2158,233.6938,42.5496,317.5648,-7.3015e-05,-1.4499999999999992e-05,0.0,0 STARLINK-5163,1 54054U 22136D   22351.42112155 -.00001450  00000-0 -73015-4 0  9998,2 54054  53.2158 233.6938 0001971  42.5496 317.5648 15.08828213  8961,6917.916,95.438,541.145,538.418,0.0
54054.0,STARLINK-5163,PAYLOAD,2022-12-17 22:49:29,15.0883065,0.000182,53.2156,231.3129,50.1258,309.9894,-3.4954e-05,-8.44e-06,0.0,0 STARLINK-5163,1 54054U 22136D   22351.95104119 -.00000844  00000-0 -34954-4 0  9992,2 54054  53.2156 231.3129 0001820  50.1258 309.9894 15.08830650  9046,6917.909000000002,95.438,541.033,538.515,0.0
54054.0,STARLINK-5163,PAYLOAD,2022-12-18 02:00:16,15.08834648,0.000179,53.2162,230.7184,44.2772,315.8363,-4.6955e-05,-1.035e-05,0.0,0 STARLINK-5163,1 54054U 22136D   22352.08351969 -.00001035  00000-0 -46955-4 0  9991,2 54054  53.2162 230.7184 0001790  44.2772 315.8363 15.08834648  9541,6917.897,95.438,541.0,538.523,0.0
54054.0,STARLINK-5163,PAYLOAD,2022-12-18 19:29:30,15.08829174,0.0001737,53.2157,227.4473,46.17,313.9435,8.232299999999999e-05,1.022e-05,0.0,0 STARLINK-5163,1 54054U 22136D   22352.81216129  .00001022  00000-0  82323-4 0  9993,2 54054  53.2157 227.4473 0001737  46.1700 313.9435 15.08829174  9178,6917.913000000001,95.438,540.98,538.577,0.0
